{
  "norad_id": 47259,
  "name": "ONEWEB-0109",
  "history": [
    {
      "epoch": "2026-03-28T18:55:23.116800Z",
      "apogee_km": 1215.1856550244138,
      "perigee_km": 1212.2596004866837,
      "latitude_deg": 5.619781825995549e-05,
      "longitude_deg": -103.43109744389142,
      "height_km": 1216.2502414802325,
      "semi_major_axis_km": 7591.859627755548,
      "eccentricity": 0.00019271,
      "inclination_deg": 87.9019,
      "raan_deg": 6.6191,
      "arg_perigee_deg": 75.7556,
      "mean_anomaly_deg": 284.3787,
      "mean_motion_rev_day": 13.12443172
    },
    {
      "epoch": "2026-03-29T04:04:17.605344Z",
      "apogee_km": 1215.1772357744012,
      "perigee_km": 1212.268035162091,
      "latitude_deg": -2.049516449978415e-05,
      "longitude_deg": 118.89064989134967,
      "height_km": 1216.2522261627576,
      "semi_major_axis_km": 7591.859635468246,
      "eccentricity": 0.0001916,
      "inclination_deg": 87.9019,
      "raan_deg": 6.5436,
      "arg_perigee_deg": 75.7504,
      "mean_anomaly_deg": 284.3837,
      "mean_motion_rev_day": 13.1244317
    }
  ]
}